NORAD_CAT_ID,OBJECT_NAME,OBJECT_TYPE,EPOCH,MEAN_MOTION,ECCENTRICITY,INCLINATION,RA_OF_ASC_NODE,ARG_OF_PERICENTER,MEAN_ANOMALY,BSTAR,MEAN_MOTION_DOT,MEAN_MOTION_DDOT,TLE_LINE0,TLE_LINE1,TLE_LINE2,SEMIMAJOR_AXIS,PERIOD,APOGEE,PERIGEE,DECAYED
53411.0,STARLINK-4497,PAYLOAD,2023-12-28 13:11:33,15.08857228,0.0001323,53.2172,115.0675,96.0328,264.0815,0.00026398,3.918e-05,0.0,0 STARLINK-4497,1 53411U 22097Z   23362.54969739  .00003918  00000-0  26398-3 0  9994,2 53411  53.2172 115.0675 0001323  96.0328 264.0815 15.08857228 77554,6917.828,95.436,540.608,538.778,0.0
53411.0,STARLINK-4497,PAYLOAD,2023-12-29 11:27:00,15.08829583,0.0001186,53.2174,110.903,77.4611,282.6514,-0.00012338,-2.25e-05,0.0,0 STARLINK-4497,1 53411U 22097Z   23363.47708570 -.00002250  00000-0 -12338-3 0  9990,2 53411  53.2174 110.9030 0001186  77.4611 282.6514 15.08829583 77207,6917.912,95.438,540.598,538.957,0.0
53411.0,STARLINK-4497,PAYLOAD,2023-12-29 13:02:23,15.08830483,0.0001185,53.2172,110.6059,75.0824,285.0299,-0.00011168,-2.064e-05,0.0,0 STARLINK-4497,1 53411U 22097Z   23363.54332510 -.00002064  00000-0 -11168-3 0  9998,2 53411  53.2172 110.6059 0001185  75.0824 285.0299 15.08830483 77705,6917.909,95.438,540.594,538.955,0.0
53411.0,STARLINK-4497,PAYLOAD,2023-12-30 11:17:46,15.08846086,0.0001156,53.2172,106.4468,61.4562,298.6546,-0.00011191,-2.069e-05,0.0,0 STARLINK-4497,1 53411U 22097Z   23364.47067946 -.00002069  00000-0 -11191-3 0  9990,2 53411  53.2172 106.4468 0001156  61.4562 298.6546 15.08846086 77350,6917.862,95.437,540.526,538.927,0.0
53411.0,STARLINK-4497,PAYLOAD,2023-12-30 14:28:32,15.08850909,0.0001166,53.2173,105.8512,67.2467,292.8648,-6.562e-05,-1.332e-05,0.0,0 STARLINK-4497,1 53411U 22097Z   23364.60315437 -.00001332  00000-0 -65620-4 0  9995,2 53411  53.2173 105.8512 0001166  67.2467 292.8648 15.08850909 77867,6917.847,95.437,540.519,538.905,0.0
53411.0,STARLINK-4497,PAYLOAD,2023-12-30 17:39:18,15.0885702,0.0001192,53.218,105.256,79.2132,280.8994,-1.6344e-05,-5.48e-06,0.0,0 STARLINK-4497,1 53411U 22097Z   23364.73562808 -.00000548  00000-0 -16344-4 0  9992,2 53411  53.2180 105.2560 0001192  79.2132 280.8994 15.08857020 77393,6917.828,95.436,540.518,538.869,0.0
53411.0,STARLINK-4497,PAYLOAD,2023-12-31 11:08:34,15.0882749,0.0001171,53.2174,101.9845,71.3523,288.7596,0.00011252,1.503e-05,0.0,0 STARLINK-4497,1 53411U 22097Z   23365.46428581  .00001503  00000-0  11252-3 0  9994,2 53411  53.2174 101.9845 0001171  71.3523 288.7596 15.08827490 77505,6917.919,95.438,540.594,538.974,0.0
53411.0,STARLINK-4497,PAYLOAD,2023-12-31 15:54:43,15.08835359,0.0001154,53.2166,101.0928,71.779,288.3328,0.00016166,2.286e-05,0.0,0 STARLINK-4497,1 53411U 22097Z   23365.66300129  .00002286  00000-0  16166-3 0  9991,2 53411  53.2166 101.0928 0001154  71.7790 288.3328 15.08835359 77535,6917.895,95.438,540.558,538.961,0.0
53411.0,STARLINK-4497,PAYLOAD,2024-01-01 12:34:43,15.08847133,0.000114,53.217,97.2251,79.5115,280.6006,5.7214e-05,6.23e-06,0.0,0 STARLINK-4497,1 53411U 22097Z   24001.52411836  .00000623  00000-0  57214-4 0  9995,2 53411  53.2170  97.2251 0001140  79.5115 280.6006 15.08847133 78157,6917.859,95.437,540.512,538.935,0.0
53411.0,STARLINK-4497,PAYLOAD,2024-01-01 15:45:29,15.08850847,0.0001168,53.2177,96.6281,93.248,266.8645,5.5779e-05,6e-06,0.0,0 STARLINK-4497,1 53411U 22097Z   24001.65659523  .00000600  00000-0  55779-4 0  9995,2 53411  53.2177  96.6281 0001168  93.2480 266.8645 15.08850847 77686,6917.847,95.437,540.52,538.904,0.0
53411.0,STARLINK-4497,PAYLOAD,2024-01-02 12:25:30,15.08847529,0.0001225,53.218,92.7621,102.1512,257.9618,7.6772e-05,9.34e-06,0.0,0 STARLINK-4497,1 53411U 22097Z   24002.51771659  .00000934  00000-0  76772-4 0  9992,2 53411  53.2180  92.7621 0001225 102.1512 257.9618 15.08847529 77814,6917.857,95.437,540.57,538.875,0.0
53411.0,STARLINK-4497,PAYLOAD,2024-01-03 12:16:19,15.08824833,0.0001243,53.2184,88.3026,95.6411,264.4723,-0.00014239,-2.552e-05,0.0,0 STARLINK-4497,1 53411U 22097Z   24003.51134241 -.00002552  00000-0 -14239-3 0  9992,2 53411  53.2184  88.3026 0001243  95.6411 264.4723 15.08824833 77961,6917.927,95.439,540.652,538.932,0.0
53411.0,STARLINK-4497,PAYLOAD,2024-01-04 10:31:43,15.08839438,0.0001225,53.2179,84.1419,90.2258,269.8875,1.3246e-05,-7.7e-07,0.0,0 STARLINK-4497,1 53411U 22097Z   24004.43869542 -.00000077  00000-0  13246-4 0  9990,2 53411  53.2179  84.1419 0001225  90.2258 269.8875 15.08839438 78106,6917.882,95.438,540.595,538.9,0.0
53411.0,STARLINK-4497,PAYLOAD,2024-01-05 11:57:53,15.0884208,0.0001291,53.2179,79.3847,84.1678,275.9462,0.00032366,4.867e-05,0.0,0 STARLINK-4497,1 53411U 22097Z   24005.49853185  .00004867  00000-0  32366-3 0  9996,2 53411  53.2179  79.3847 0001291  84.1678 275.9462 15.08842080 78262,6917.874,95.437,540.632,538.846,0.0
53411.0,STARLINK-4497,PAYLOAD,2024-01-05 13:33:16,15.08844343,0.0001294,53.2179,79.0874,84.0788,276.0351,0.00035594,5.382e-05,0.0,0 STARLINK-4497,1 53411U 22097Z   24005.56477202  .00005382  00000-0  35594-3 0  9995,2 53411  53.2179  79.0874 0001294  84.0788 276.0351 15.08844343 78761,6917.867,95.437,540.627,538.837,0.0
53411.0,STARLINK-4497,PAYLOAD,2024-01-06 11:48:40,15.0884782,0.0001609,53.2174,74.9252,66.571,293.5451,3.5996e-05,2.85e-06,0.0,0 STARLINK-4497,1 53411U 22097Z   24006.49213295  .00000285  00000-0  35996-4 0  9992,2 53411  53.2174  74.9252 0001609  66.5710 293.5451 15.08847820 78410,6917.856,95.437,540.835,538.608,0.0
53411.0,STARLINK-4497,PAYLOAD,2024-01-06 13:24:03,15.08849575,0.0001625,53.2177,74.6282,69.2662,290.8504,5.4147e-05,5.74e-06,0.0,0 STARLINK-4497,1 53411U 22097Z   24006.55837176  .00000574  00000-0  54147-4 0  9999,2 53411  53.2177  74.6282 0001625  69.2662 290.8504 15.08849575 78910,6917.851,95.437,540.84,538.592,0.0
53411.0,STARLINK-4497,PAYLOAD,2024-01-07 10:04:04,15.08846731,0.0001396,53.2169,70.7623,86.6593,273.4559,-3.4833e-05,-8.42e-06,0.0,0 STARLINK-4497,1 53411U 22097Z   24007.41949441 -.00000842  00000-0 -34833-4 0  9994,2 53411  53.2169  70.7623 0001396  86.6593 273.4559 15.08846731 78556,6917.86,95.437,540.691,538.759,0.0
53411.0,STARLINK-4497,PAYLOAD,2024-01-07 22:47:10,15.08818668,0.0001504,53.2167,68.3829,94.7347,265.3817,0.00048972,7.51e-05,0.0,0 STARLINK-4497,1 53411U 22097Z   24007.94942308  .00007510  00000-0  48972-3 0  9992,2 53411  53.2167  68.3829 0001504  94.7347 265.3817 15.08818668 78637,6917.946,95.439,540.851,538.77,0.0
53411.0,STARLINK-4497,PAYLOAD,2024-01-08 11:30:13,15.08848451,0.0001378,53.2169,66.0037,93.5672,266.5478,4.1452e-05,3.72e-06,0.0,0 STARLINK-4497,1 53411U 22097Z   24008.47932820  .00000372  00000-0  41452-4 0  9995,2 53411  53.2169  66.0037 0001378  93.5672 266.5478 15.08848451 78710,6917.855,95.437,540.673,538.766,0.0
53411.0,STARLINK-4497,PAYLOAD,2024-01-09 12:56:24,15.08844327,0.0001439,53.2163,61.242,111.2437,248.8709,9.7084e-05,1.258e-05,0.0,0 STARLINK-4497,1 53411U 22097Z   24009.53916779  .00001258  00000-0  97084-4 0  9994,2 53411  53.2163  61.2420 0001439 111.2437 248.8709 15.08844327 78877,6917.867,95.437,540.728,538.737,0.0
53411.0,STARLINK-4497,PAYLOAD,2024-01-10 09:36:24,15.08844983,0.0001623,53.2177,57.3802,111.0751,249.0415,8.973e-05,1.14e-05,0.0,0 STARLINK-4497,1 53411U 22097Z   24010.40028680  .00001140  00000-0  89730-4 0  9996,2 53411  53.2177  57.3802 0001623 111.0751 249.0415 15.08844983 79498,6917.865,95.437,540.853,538.607,0.0
53411.0,STARLINK-4497,PAYLOAD,2024-01-10 22:19:29,15.08844079,0.0001617,53.218,55.0031,101.4381,258.6793,0.00010345,1.359e-05,0.0,0 STARLINK-4497,1 53411U 22097Z   24010.93020736  .00001359  00000-0  10345-3 0  9995,2 53411  53.2180  55.0031 0001617 101.4381 258.6793 15.08844079 79082,6917.868,95.437,540.852,538.614,0.0
53411.0,STARLINK-4497,PAYLOAD,2024-01-11 09:27:11,15.0884576,0.0001779,53.2188,52.9239,103.8462,256.2728,0.00012186,1.652e-05,0.0,0 STARLINK-4497,1 53411U 22097Z   24011.39388512  .00001652  00000-0  12186-3 0  9996,2 53411  53.2188  52.9239 0001779 103.8462 256.2728 15.08845760 79643,6917.863,95.437,540.958,538.497,0.0
53411.0,STARLINK-4497,PAYLOAD,2024-01-12 02:56:27,15.0883224,0.0001555,53.2186,49.6525,104.9729,255.1436,-1.7064e-07,-2.91e-06,0.0,0 STARLINK-4497,1 53411U 22097Z   24012.12253762 -.00000291  00000-0 -17064-6 0  9999,2 53411  53.2186  49.6525 0001555 104.9729 255.1436 15.08832240 79263,6917.904,95.438,540.845,538.693,0.0
53411.0,STARLINK-4497,PAYLOAD,2024-01-12 09:17:59,15.08836775,0.0001612,53.218,48.4626,100.4801,259.6373,3.2035e-05,2.22e-06,0.0,0 STARLINK-4497,1 53411U 22097Z   24012.38749532  .00000222  00000-0  32035-4 0  9997,2 53411  53.2180  48.4626 0001612 100.4801 259.6373 15.08836775 79796,6917.89,95.438,540.87,538.64,0.0
53411.0,STARLINK-4497,PAYLOAD,2024-01-13 07:33:23,15.08836149,0.0001768,53.2177,44.3004,104.2021,255.9168,1.6141e-05,-3.1e-07,0.0,0 STARLINK-4497,1 53411U 22097Z   24013.31485976 -.00000031  00000-0  16141-4 0  9999,2 53411  53.2177  44.3004 0001768 104.2021 255.9168 15.08836149 79443,6917.892,95.438,540.98,538.534,0.0
53411.0,STARLINK-4497,PAYLOAD,2024-01-14 10:34:57,15.08839587,0.0001512,53.218,39.2425,106.5787,253.5372,0.00019675,2.845e-05,0.0,0 STARLINK-4497,1 53411U 22097Z   24014.44093922  .00002845  00000-0  19675-3 0  9998,2 53411  53.2180  39.2425 0001512 106.5787 253.5372 15.08839587 79617,6917.882,95.438,540.793,538.701,0.0
53411.0,STARLINK-4497,PAYLOAD,2024-01-15 10:25:43,15.08851889,0.0001554,53.2173,34.7765,97.9206,262.1963,0.00026685,3.963e-05,0.0,0 STARLINK-4497,1 53411U 22097Z   24015.43453456  .00003963  00000-0  26685-3 0  9991,2 53411  53.2173  34.7765 0001554  97.9206 262.1963 15.08851889 80254,6917.844,95.437,540.784,538.634,0.0
53411.0,STARLINK-4497,PAYLOAD,2024-01-16 10:16:31,15.08843928,0.0001545,53.2173,30.3179,117.6474,242.4675,0.00012766,1.745e-05,0.0,0 STARLINK-4497,1 53411U 22097Z   24016.42814045  .00001745  00000-0  12766-3 0  9997,2 53411  53.2173  30.3179 0001545 117.6474 242.4675 15.08843928 79919,6917.868,95.437,540.802,538.665,0.0
